STARLINK-36634          
1 67593U 26018E   26050.36169811  .00062050  00000+0  32209-3 0  9996
2 67593  97.2842 115.2811 0001353  77.9426 282.1994 15.80835813  4427
STARLINK-36638          
1 67594U 26018F   26050.36058843  .00125164  00000+0  64343-3 0  9999
2 67594  97.2845 115.2826 0001412  51.9922 308.1474 15.80864165  4420
STARLINK-36628          
1 67595U 26018G   26050.37578118  .00156237  00000+0  10277-2 0  9994
2 67595  97.2837 115.2606 0000977  70.5916 289.5454 15.75225075  4428
STARLINK-36629          
1 67596U 26018H   26050.44707316  .00126137  00000+0  83327-3 0  9990
2 67596  97.2833 115.3164 0001451  60.9539 299.1871 15.75213298  4432
STARLINK-36384          
1 67597U 26018J   26050.48424752  .00129449  00000+0  66580-3 0  9996
2 67597  97.2849 115.4200 0000912  76.9991 283.1379 15.80841672  4448
STARLINK-36358          
1 67598U 26018K   26050.37754754  .00161864  00000+0  10642-2 0  9997
2 67598  97.2834 115.2584 0001331  58.6726 301.4670 15.75220360  4420
STARLINK-36582          
1 67599U 26018L   26050.50003471 -.00035496  00000+0 -23809-3 0  9999
2 67599  97.2843 115.4248 0001230  79.6321 342.6339 15.75190992  4530
STARLINK-36640          
1 67600U 26018M   26050.38142757  .00126724  00000+0  83696-3 0  9992
2 67600  97.2835 115.2522 0001058  77.5801 282.5583 15.75217116  4424
STARLINK-36635          
1 67601U 26018N   26050.48140648  .00168882  00000+0  86362-3 0  9995
2 67601  97.2848 115.4233 0001205  69.9432 290.1966 15.80862781  4441
STARLINK-36631          
1 67602U 26018P   26050.47902894  .00165210  00000+0  84582-3 0  9998
2 67602  97.2850 115.4266 0000920  83.1335 277.0038 15.80847164  4446
STARLINK-36626          
1 67603U 26018Q   26050.50003471 -.00036109  00000+0 -24240-3 0  9997
2 67603  97.2849 115.4393 0000825  99.9294 356.3360 15.75176217  4424
STARLINK-36605          
1 67604U 26018R   26050.37366397  .00146146  00000+0  96026-3 0  9994
2 67604  97.2837 115.2635 0000802  83.8579 276.2778 15.75280711  4420
STARLINK-36281          
1 67605U 26018S   26050.47777574  .00179670  00000+0  91646-3 0  9990
2 67605  97.2853 115.4274 0002111 141.8043 218.3375 15.80888822  4441
STARLINK-35843          
1 67606U 26018T   26050.36801633  .00090376  00000+0  59975-3 0  9997
2 67606  97.2841 115.2718 0001191  93.1669 266.9732 15.75215019  4420
STARLINK-36351          
1 67607U 26018U   26050.50003471 -.00004462  00000+0 -29078-4 0  9993
2 67607  97.2850 115.4438 0001129  73.5739  32.6715 15.75175833  4487
STARLINK-36411          
1 67608U 26018V   26050.47261968  .00211641  00000+0  10763-2 0  9993
2 67608  97.2854 115.4330 0001356  95.2780 264.8643 15.80872943  4449
STARLINK-36312          
1 67609U 26018W   26050.50003471  .00160371  00000+0  10603-2 0  9997
2 67609  97.2850 115.4496 0001284 104.2056  14.0627 15.75096395  4480
STARLINK-36387          
1 67610U 26018X   26050.46999514  .00167033  00000+0  85480-3 0  9994
2 67610  97.2852 115.4369 0001325  75.3311 284.8104 15.80851295  4448
STARLINK-36636          
1 67611U 26018Y   26050.34231432  .00261486  00000+0  13190-2 0  9995
2 67611  97.2870 115.2975 0001432  54.0910 306.0491 15.80920966  4424
STARLINK-36407          
1 67612U 26018Z   26050.50003471 -.00039287  00000+0 -26360-3 0  9992
2 67612  97.2846 115.4643 0001464  90.6300  63.5986 15.75201887  4530
STARLINK-36597          
1 67613U 26018AA  26050.34037947  .00167054  00000+0  85446-3 0  9992
2 67613  97.2854 115.3061 0001994  37.7436 322.3972 15.80861902  4428
NEONSAT-1A              
1 67614U 26019A   26050.39558260  .00003442  00000+0  22960-3 0  9997
2 67614  97.4104 174.6307 0012157 232.5200 127.4924 15.07633050  3067
ELECTRON KICK STAGE R/B 
1 67616U 26019C   26050.29478905  .00456956  63724-4  19335-2 0  9995
2 67616  97.4037 176.1354 0163893 189.1618 170.6646 15.67780680  3156
STARLINK-36548          
1 67617U 26020A   26049.99050280  .00328675  00000+0  19175-2 0  9996
2 67617  42.9971 255.9289 0002864 262.5909  97.4635 15.76676826  3139
STARLINK-36601          
1 67618U 26020B   26050.02081987  .00269721  00000+0  12393-2 0  9992
2 67618  42.9987 255.2751 0002016 260.1769  99.8875 15.82095833  3144
STARLINK-36119          
1 67619U 26020C   26049.03791792  .00240127  00000+0  14320-2 0  9995
2 67619  42.9969 261.6876 0001947 258.7078 101.3573 15.76432021  2984
STARLINK-36607          
1 67620U 26020D   26048.94583094  .00639263  00000+0  27681-2 0  9997
2 67620  42.9966 261.8408 0002739 285.0564  75.0004 15.82415698  2972
STARLINK-36615          
1 67621U 26020E   26050.01969826  .00307854  00000+0  14067-2 0  9992
2 67621  42.9976 255.2671 0001889 257.8287 102.2374 15.82114142  3140
STARLINK-36614          
1 67622U 26020F   26049.98393337  .00129952  00000+0  78726-3 0  9999
2 67622  42.9976 255.8760 0001642 270.6542  89.4139 15.76411350  3138
STARLINK-36600          
1 67623U 26020G   26050.04948407  .00327694  00000+0  19356-2 0  9999
2 67623  42.9970 255.5084 0001659 257.7525 102.3159 15.76400731  3143
STARLINK-36439          
1 67624U 26020H   26050.03853332  .00119613  00000+0  72577-3 0  9996
2 67624  42.9973 255.4197 0002126 249.1230 110.9412 15.76409689  3147
STARLINK-36438          
1 67625U 26020J   26050.04510480  .00314890  00000+0  18642-2 0  9998
2 67625  42.9968 255.4731 0001527 257.8553 102.2145 15.76384750  3142
STARLINK-36436          
1 67626U 26020K   26048.94185021  .00432403  00000+0  19514-2 0  9994
2 67626  42.9968 261.8078 0002173 315.8447  44.2251 15.82057753  2973
STARLINK-36502          
1 67627U 26020L   26050.01583265  .00213511  00000+0  98898-3 0  9998
2 67627  42.9969 255.2379 0001582 312.4813  47.5925 15.82074790  3143
STARLINK-36532          
1 67628U 26020M   26050.01386625  .00288256  00000+0  13220-2 0  9993
2 67628  42.9974 255.2187 0001844 262.9234  97.1428 15.82087004  3145
STARLINK-36367          
1 67629U 26020N   26050.50003471  .00056260  00000+0  34665-3 0  9998
2 67629  42.9983 252.4588 0001678 264.5884 259.8523 15.76335718  4464
STARLINK-36416          
1 67630U 26020P   26050.04291638  .00258491  00000+0  15405-2 0  9993
2 67630  42.9968 255.4546 0001363 280.5947  79.4769 15.76394589  3148
STARLINK-36527          
1 67631U 26020Q   26050.01277385  .00279982  00000+0  12846-2 0  9998
2 67631  42.9970 255.2097 0002424 262.0998  97.9598 15.82098922  3145
STARLINK-36633          
1 67632U 26020R   26050.50003471 -.00110657  00000+0 -68305-3 0  9993
2 67632  42.9990 252.2412 0001969 257.6961 353.7721 15.76442904  4462
STARLINK-36637          
1 67633U 26020S   26050.04072886  .00257169  00000+0  15328-2 0  9993
2 67633  42.9963 255.4375 0001020 311.2277  48.8505 15.76395142  3148
STARLINK-36617          
1 67634U 26020T   26050.01075117  .00277398  00000+0  12721-2 0  9991
2 67634  42.9972 255.1937 0002625 242.9758 117.0846 15.82116284  3148
STARLINK-36627          
1 67635U 26020U   26050.03416093  .00257223  00000+0  15317-2 0  9995
2 67635  42.9969 255.3832 0000930 310.5248  49.5541 15.76416244  3147
STARLINK-36624          
1 67636U 26020V   26050.50003471  .00069160  00000+0  42501-3 0  9997
2 67636  42.9992 252.2719 0001422 270.6335 328.4552 15.76325344  4461
STARLINK-36610          
1 67637U 26020W   26050.50003471 -.00131339  00000+0 -81569-3 0  9995
2 67637  42.9981 252.5834 0001649 263.5119 211.2504 15.76376483  4469
STARLINK-36599          
1 67638U 26020X   26050.00659907  .00214567  00000+0  99361-3 0  9994
2 67638  42.9966 255.1598 0002775 228.5556 131.5078 15.82075329  3142
STARLINK-36595          
1 67639U 26020Y   26050.50003471  .00092943  00000+0  56867-3 0  9995
2 67639  42.9988 252.1784 0002033 259.1329  17.2773 15.76319011  4466
STARLINK-36570          
1 67640U 26020Z   26050.02977373  .00290378  00000+0  17179-2 0  9999
2 67640  42.9967 255.3474 0001663 272.5867  87.4813 15.76469999  3149
STARLINK-36514          
1 67641U 26020AA  26050.00351885  .00262782  00000+0  12085-2 0  9991
2 67641  42.9976 255.1321 0002245 247.3359 112.7275 15.82095097  3147
STARLINK-36556          
1 67642U 26020AB  26050.50003471  .00071173  00000+0  43708-3 0  9991
2 67642  42.9985 252.3330 0001652 261.6828 312.5225 15.76330340  4465
STARLINK-36533          
1 67643U 26020AC  26050.03196347  .00226545  00000+0  13531-2 0  9990
2 67643  42.9978 255.3639 0001821 246.9232 113.1445 15.76435954  3146
STARLINK-36623          
1 67644U 26020AD  26050.25002315  .00013018  00000+0  82849-4 0  9995
2 67644  42.9990 253.9450 0001821 261.7904 294.5592 15.76354829  4427
STARLINK-36619          
1 67645U 26020AE  26050.02320296  .00188563  00000+0  11314-2 0  9997
2 67645  42.9969 255.2928 0002209 257.7830 102.2792 15.76444627  3144
ALSAT-3B                
1 67646U 26021A   26050.45551215  .00006360  00000+0  26770-3 0  9990
2 67646  97.4702 124.8710 0012402 193.2819 166.8093 15.23659988  2949
CZ-2C R/B               
1 67647U 26021B   26050.39308888  .00011898  00000+0  35889-3 0  9993
2 67647  97.6542 125.4941 0153295  74.8628 286.9507 15.23579328  2915
STARLINK-36719          
1 67648U 26022A   26050.43026265  .00218927  00000+0  14256-2 0  9992
2 67648  97.2829  83.4939 0001320 113.7590 246.3814 15.75283770  2676
STARLINK-36342          
1 67649U 26022B   26050.42955336  .00175424  00000+0  11510-2 0  9996
2 67649  97.2830  83.4944 0001185 111.7106 248.4285 15.75230503  2676
STARLINK-36703          
1 67650U 26022C   26050.42849648  .00090082  00000+0  59824-3 0  9993
2 67650  97.2832  83.4960 0001710  97.2833 262.8626 15.75198099  2679
STARLINK-36696          
1 67651U 26022D   26050.42672965  .00107263  00000+0  71056-3 0  9991
2 67651  97.2831  83.4985 0001396 137.2348 222.9026 15.75204645  2678
STARLINK-36699          
1 67652U 26022E   26050.42602334  .00154171  00000+0  10145-2 0  9996
2 67652  97.2828  83.4995 0001166 137.6948 222.4408 15.75223360  2675
